COSMOS 2433 (720)       
1 32275U 07052A   23298.18170493 -.00000049  00000+0  00000+0 0  9992
2 32275  66.0080 348.2448 0005176 240.3645 119.6531  2.13103974124471
COSMOS 2432 (719)       
1 32276U 07052B   23299.26909008 -.00000051  00000+0  00000+0 0  9998
2 32276  66.0221 348.3183 0010026 311.6847 109.4382  2.13103136124529
COSMOS 2434 (721)       
1 32393U 07065A   23299.49560844 -.00000016  00000+0  00000+0 0  9999
2 32393  64.3313 224.5351 0002174  69.0106 110.3405  2.13103005123218
COSMOS 2436 (723)       
1 32395U 07065C   23299.32732278 -.00000017  00000+0  00000+0 0  9996
2 32395  64.3400 224.6030 0016401 359.3973 186.3024  2.13102641123166
COSMOS 2456 (730)       
1 36111U 09070A   23299.52959522  .00000069  00000+0  00000+0 0  9995
2 36111  64.5135 104.0136 0001221 330.7992  33.0369  2.13099020107875
COSMOS 2457 (733)       
1 36112U 09070B   23299.83124019  .00000065  00000+0  00000+0 0  9991
2 36112  64.4976 103.8674 0006583 148.9308 217.5135  2.13101203107886
COSMOS 2460 (732)       
1 36402U 10007C   23299.36299273 -.00000050  00000+0  00000+0 0  9993
2 36402  65.8691 346.9120 0002272 241.8038 114.4204  2.13106154106169
COSMOS 2476 (744)       
1 37867U 11064A   23298.47951022  .00000085  00000+0  00000+0 0  9998
2 37867  64.7918 105.5964 0021528 230.0159 317.9922  2.13101614 93189
COSMOS 2477 (745)       
1 37868U 11064B   23299.40865672  .00000075  00000+0  00000+0 0  9997
2 37868  64.7995 105.6348 0018739 230.0573 128.6187  2.13101474 93197
COSMOS 2475 (743)       
1 37869U 11064C   23299.90257052  .00000068  00000+0  00000+0 0  9992
2 37869  64.8067 105.6307 0022661 248.4813  87.6435  2.13101762 93216
COSMOS 2485 (747)       
1 39155U 13019A   23298.17637204  .00000089  00000+0  00000+0 0  9996
2 39155  64.9516 106.1411 0022063 226.0520 133.7973  2.13101741 81697
COSMOS 2492 (754)       
1 39620U 14012A   23299.53969626 -.00000050  00000+0  00000+0 0  9993
2 39620  65.7524 346.5170 0013210 310.8223  49.1343  2.13103023 74687
COSMOS 2500 (755)       
1 40001U 14032A   23299.25303644 -.00000049  00000+0  00000+0 0  9999
2 40001  65.6906 346.3502 0008588 212.9578 147.0591  2.13105852 72895
COSMOS 2501 (702K)      
1 40315U 14075A   23299.03427127 -.00000018  00000+0  00000+0 0  9999
2 40315  63.6343 223.8593 0019036 208.7710 151.1305  2.13101168 69280
COSMOS 2514 (751)       
1 41330U 16008A   23299.48503465 -.00000049  00000+0  00000+0 0  9998
2 41330  65.4873 345.9106 0012546 216.9294 143.0545  2.13102495 60066
COSMOS 2522 (752)       
1 42939U 17055A   23299.32654420 -.00000017  00000+0  00000+0 0  9993
2 42939  64.0950 224.8050 0007899 241.7538 118.1715  2.13101934 47411
COSMOS 2527 (756)       
1 43508U 18053A   23299.75450573  .00000072  00000+0  00000+0 0  9995
2 43508  65.1132 106.1912 0007784 213.0762 146.8985  2.13102335 41722
COSMOS 2529 (757)       
1 43687U 18086A   23299.38455898 -.00000017  00000+0  00000+0 0  9993
2 43687  64.3103 225.2526 0009586 264.6275  95.2675  2.13101968 38726
COSMOS 2534 (758)       
1 44299U 19030A   23299.37187376 -.00000017  00000+0  00000+0 0  9995
2 44299  64.3831 225.1842 0011950 285.8793 198.5293  2.13101715 34361
COSMOS 2544 (759)       
1 44850U 19088A   23299.22903458  .00000078  00000+0  00000+0 0  9998
2 44850  65.0993 106.0507 0011339 247.4391 112.4672  2.13102095 30156
COSMOS 2545 (760)       
1 45358U 20018A   23299.42592947 -.00000051  00000+0  00000+0 0  9998
2 45358  64.8276 346.1152 0011631 244.6603 115.2890  2.13102451 28105
COSMOS 2547 (705K)      
1 46805U 20075A   23299.14538350 -.00000018  00000+0  00000+0 0  9999
2 46805  64.6108 224.7634 0007223 242.7428 117.1885  2.13102712 23343
COSMOS 2557 (706K)      
1 52984U 22075A   23299.30828238 -.00000054  00000+0  00000+0 0  9991
2 52984  64.7459 348.2731 0013400 276.0595  83.8572  2.13102095 10158
COSMOS 2559 (707K)      
1 54031U 22130A   23299.25043900 -.00000054  00000+0  00000+0 0  9997
2 54031  64.7173 348.4008 0007926 226.8783 133.1245  2.13101328  8121
COSMOS 2564 (761)       
1 54377U 22161A   23299.44324604 -.00000016  00000+0  00000+0 0  9996
2 54377  64.7515 224.8158 0009201 221.6082 138.3271  2.13102118  7077
COSMOS 2569 (703K)      
1 57517U 23114A   23298.99329620  .00000079  00000+0  00000+0 0  9994
2 57517  64.8224 105.2937 0008599 294.7859  65.1510  2.13104012  1693
